     2.11           N: GPS NAV DATA                         RINEX VERSION / TYPE
teqc  2019Feb25                         20221121 12:27:13UTCPGM / RUN BY / DATE
OSX ker:10.11.6|Core i5|gcc 4.3 -m64|OSX ker:10.10+|=+      COMMENT
    7.4506D-09  1.4901D-08 -5.9605D-08 -1.1921D-07          ION ALPHA
    7.9872D+04  1.6384D+04 -1.3107D+05 -1.3107D+05          ION BETA
    9.313225746155D-10-3.552713678801D-15    61440     1549 DELTA-UTC: A0,A1,T,W
                                                            END OF HEADER
17 09  9 13  0  0  0.0 8.448213338852D-05 2.955857780762D-12 0.000000000000D+00
    1.120000000000D+02-8.468750000000D+00 4.770555855657D-09-1.150815591586D+00
   -3.706663846970D-07 4.649854381569D-03 8.525326848030D-06 5.153729993820D+03
    0.000000000000D+00 3.911554813385D-08 2.855462052770D+00 5.587935447693D-09
    9.602115108122D-01 2.132500000000D+02-2.641686988089D+00-7.992118618106D-09
    4.228747572882D-10 1.000000000000D+00 1.549000000000D+03 0.000000000000D+00
    2.800000000000D+00 0.000000000000D+00-1.024454832077D-08 1.120000000000D+02
   -7.182000000000D+03 4.000000000000D+00
11 09  9 13  0  0  0.0-1.936079934239D-05-1.705302565824D-12 0.000000000000D+00
    3.000000000000D+01 1.112500000000D+01 6.591703142323D-09 2.226625768426D+00
    5.234032869339D-07 9.808333124965D-03 6.888061761856D-06 5.153692573547D+03
    0.000000000000D+00-2.104789018631D-07-2.619346242376D+00-1.862645149231D-07
    8.892783114054D-01 2.090000000000D+02 7.245218557692D-01-8.836796659480D-09
   -3.107272287506D-11 1.000000000000D+00 1.549000000000D+03 0.000000000000D+00
    2.000000000000D+00 0.000000000000D+00-1.164153218269D-08 3.000000000000D+01
   -7.182000000000D+03 4.000000000000D+00
32 09  9 13  0  0  0.0 1.976997591555D-04-7.048583938740D-12 0.000000000000D+00
    1.100000000000D+01 8.265625000000D+01 4.267320608175D-09 3.109665872374D+00
    4.280358552933D-06 1.324845058843D-02 9.406358003616D-06 5.153729825974D+03
    0.000000000000D+00 1.005828380585D-07-1.266656996685D+00 2.048909664154D-07
    9.622650981581D-01 1.942500000000D+02-1.120288398726D+00-7.706035273015D-09
   -3.718012012981D-10 1.000000000000D+00 1.549000000000D+03 0.000000000000D+00
    2.000000000000D+00 0.000000000000D+00-3.259629011154D-09 1.100000000000D+01
   -7.182000000000D+03 4.000000000000D+00
28 09  9 13  0  0  0.0-2.616923302412D-05 1.136868377216D-13 0.000000000000D+00
    7.400000000000D+01-7.093750000000D+01 4.284107021682D-09-5.976225893796D-01
   -3.531575202942D-06 1.506282645278D-02 8.558854460716D-06 5.153657155991D+03
    0.000000000000D+00-5.587935447693D-08 1.820904059163D+00 2.328306436539D-07
    9.674249726075D-01 2.231562500000D+02-2.017866167700D+00-8.138196131392D-09
    2.839403986859D-10 1.000000000000D+00 1.549000000000D+03 0.000000000000D+00
    2.800000000000D+00 0.000000000000D+00-1.024454832077D-08 7.400000000000D+01
   -7.182000000000D+03 4.000000000000D+00
26 09  9 13  0  0  0.0 6.292108446360D-05-9.094947017729D-13 0.000000000000D+00
    4.900000000000D+01 6.340625000000D+01 3.816230389885D-09 1.795842712994D+00
    2.812594175339D-06 1.968681160361D-02 4.613772034645D-06 5.153608879089D+03
    0.000000000000D+00-2.868473529816D-07-2.465864154054D-01-3.781169652939D-07
    9.924983746840D-01 3.133750000000D+02 1.026580280001D+00-7.956402844686D-09
   -4.893060958486D-11 1.000000000000D+00 1.549000000000D+03 0.000000000000D+00
    2.000000000000D+00 0.000000000000D+00-6.053596735001D-09 4.900000000000D+01
   -7.182000000000D+03 4.000000000000D+00
14 09  9 13  0  0  0.0-5.178013816476D-05 5.229594535194D-12 0.000000000000D+00
    2.300000000000D+01 6.984375000000D+01 3.862660895331D-09-1.648898083727D+00
    3.594905138016D-06 4.913134616800D-03 4.258006811142D-06 5.153647108078D+03
    0.000000000000D+00 1.639127731323D-07-2.641846937701D-01-8.568167686462D-08
    9.881196633788D-01 3.159375000000D+02-2.157443964304D+00-7.919258440330D-09
   -2.750114553310D-11 1.000000000000D+00 1.549000000000D+03 0.000000000000D+00
    2.000000000000D+00 0.000000000000D+00-8.847564458847D-09 2.300000000000D+01
   -7.182000000000D+03 4.000000000000D+00
27 09  9 13  0  0  0.0 8.224835619330D-05 3.183231456205D-12 0.000000000000D+00
    2.300000000000D+01-4.521875000000D+01 4.150530029093D-09-1.541145856351D+00
   -1.817941665649D-06 2.135236887261D-02 4.166737198830D-06 5.153740566254D+03
    0.000000000000D+00 2.235174179077D-08 6.852214583384D-01 5.345791578293D-07
    9.756632553308D-01 3.047187500000D+02-1.547062009708D+00-8.116409509606D-09
    1.071473202588D-11 1.000000000000D+00 1.549000000000D+03 0.000000000000D+00
    2.000000000000D+00 0.000000000000D+00-4.190951585770D-09 2.300000000000D+01
   -7.182000000000D+03 4.000000000000D+00
20 09  9 13  0  0  0.0 7.243175059557D-05-9.094947017729D-13 0.000000000000D+00
    9.300000000000D+01 6.421875000000D+01 4.934491255653D-09 3.612867239222D-01
    3.380700945854D-06 3.842258127406D-03 9.305775165558D-06 5.153780216217D+03
    0.000000000000D+00-6.332993507385D-08-1.378542441620D+00 3.352761268616D-08
    9.402343667297D-01 1.872812500000D+02 1.326270257417D+00-8.277844805463D-09
   -4.221604418198D-10 1.000000000000D+00 1.549000000000D+03 0.000000000000D+00
    2.000000000000D+00 0.000000000000D+00-7.450580596924D-09 9.300000000000D+01
   -7.182000000000D+03 4.000000000000D+00
 9 09  9 13  0  0  0.0 7.716473191977D-05 2.046363078989D-12 0.000000000000D+00
    8.900000000000D+01-5.881250000000D+01 4.104813839116D-09 1.458753272918D+00
   -3.498047590256D-06 2.070283936337D-02 4.151836037636D-06 5.153629463196D+03
    0.000000000000D+00-1.210719347000D-07 7.095059613598D-01-5.140900611877D-07
    9.776056374960D-01 3.096875000000D+02 1.511394858565D+00-8.176769166685D-09
    3.214419607765D-12 1.000000000000D+00 1.549000000000D+03 0.000000000000D+00
    2.800000000000D+00 0.000000000000D+00-5.587935447693D-09 8.900000000000D+01
   -7.182000000000D+03 4.000000000000D+00
12 09  9 13  0  0  0.0-2.198545262218D-04 5.684341886081D-12 0.000000000000D+00
    4.900000000000D+01-8.115625000000D+01 4.157316026042D-09 2.387085978913D+00
   -4.453584551811D-06 3.096764790826D-03 9.104609489441D-06 5.153580429077D+03
    0.000000000000D+00-2.793967723846D-08 1.795741271329D+00-1.862645149231D-09
    9.678228146421D-01 2.052500000000D+02-5.872511628995D-01-7.787110078677D-09
    2.425101015191D-10 1.000000000000D+00 1.549000000000D+03 0.000000000000D+00
    2.000000000000D+00 0.000000000000D+00-1.164153218269D-08 4.900000000000D+01
   -5.508000000000D+03 4.000000000000D+00
 4 09  9 13  0  0  0.0-2.628839574754D-04-1.728039933369D-11 0.000000000000D+00
    4.800000000000D+01 1.093750000000D+01 5.403082202918D-09 6.220354342041D-01
    7.878988981247D-07 8.735680719838D-03 7.256865501404D-06 5.153793521881D+03
    0.000000000000D+00-3.725290298462D-09-2.395513051214D+00 7.264316082001D-08
    9.400578627376D-01 2.267187500000D+02 5.133886485150D-01-8.464281142713D-09
   -3.375140588153D-10 1.000000000000D+00 1.549000000000D+03 0.000000000000D+00
    2.000000000000D+00 0.000000000000D+00-6.053596735001D-09 4.800000000000D+01
   -5.448000000000D+03 4.000000000000D+00
23 09  9 13  0  0  0.0 3.886311315000D-04-3.410605131648D-13 0.000000000000D+00
    2.700000000000D+01 7.837500000000D+01 4.239105147173D-09-2.301328967703D+00
    3.976747393608D-06 6.466715713032D-03 5.031004548073D-06 5.153577175140D+03
    0.000000000000D+00-1.583248376846D-07-2.985784507967D-01-6.146728992462D-08
    9.700431146694D-01 2.876562500000D+02 2.969465083328D+00-8.101766042504D-09
    2.678683006471D-11 1.000000000000D+00 1.549000000000D+03 0.000000000000D+00
    2.000000000000D+00 0.000000000000D+00-2.002343535423D-08 2.700000000000D+01
   -2.328000000000D+03 4.000000000000D+00
30 09  9 13  0  0  0.0 1.764148473740D-04 3.069544618484D-12 0.000000000000D+00
    1.090000000000D+02-8.093750000000D+01 4.546975114050D-09-1.103655140124D-01
   -4.444271326065D-06 1.191233610734D-02 9.331852197647D-06 5.153676912308D+03
    0.000000000000D+00-2.346932888031D-07 1.746224111506D+00 1.080334186554D-07
    9.529338751895D-01 1.997500000000D+02 1.451461739573D+00-8.214270728776D-09
    2.982267080537D-10 1.000000000000D+00 1.549000000000D+03 0.000000000000D+00
    2.800000000000D+00 0.000000000000D+00-7.916241884232D-09 1.090000000000D+02
   -1.728000000000D+03 4.000000000000D+00
 2 09  9 13  0  0  0.0 1.719784922898D-04 2.955857780762D-12 0.000000000000D+00
    9.300000000000D+01 1.396875000000D+01 5.276648365013D-09-2.220053310520D+00
    7.282942533493D-07 9.092225343920D-03 7.659196853638D-06 5.153703577042D+03
    0.000000000000D+00-2.775341272354D-07-2.413751931165D+00-1.285225152969D-07
    9.408779687611D-01 2.218750000000D+02 2.892724507301D+00-8.273916070386D-09
   -2.517962026082D-10 1.000000000000D+00 1.549000000000D+03 0.000000000000D+00
    2.000000000000D+00 0.000000000000D+00-1.722946763039D-08 9.300000000000D+01
   -1.548000000000D+03 4.000000000000D+00
31 09  9 13  0  0  0.0-6.442237645388D-05 4.547473508865D-13 0.000000000000D+00
    4.600000000000D+01-7.284375000000D+01 4.093027633887D-09 2.186463105136D+00
   -3.622844815254D-06 7.037175935693D-03 3.358349204063D-06 5.153788478851D+03
    0.000000000000D+00 7.078051567078D-08 7.411457385292D-01 1.061707735062D-07
    9.740494416404D-01 3.193437500000D+02-1.139209753367D+00-8.009262189347D-09
   -4.821629411647D-11 1.000000000000D+00 1.549000000000D+03 0.000000000000D+00
    2.000000000000D+00 0.000000000000D+00-1.303851604462D-08 4.600000000000D+01
   -7.980000000000D+02 4.000000000000D+00
